[{"OBJECT_NAME":"STARLINK-31323","OBJECT_ID":"2024-020G","EPOCH":"2026-03-09T21:26:58.632288","MEAN_MOTION":15.30197187,"ECCENTRICITY":7.152e-5,"INCLINATION":53.162,"RA_OF_ASC_NODE":321.3789,"ARG_OF_PERICENTER":64.5266,"MEAN_ANOMALY":295.5809,"EPHEMERIS_TYPE":0,"CLASSIFICATION_TYPE":"U","NORAD_CAT_ID":58882,"ELEMENT_SET_NO":999,"REV_AT_EPOCH":11810,"BSTAR":2.7795841e-5,"MEAN_MOTION_DOT":4.64e-6,"MEAN_MOTION_DDOT":0},{"OBJECT_NAME":"EDISON-1","OBJECT_ID":"2025-009B","EPOCH":"2026-03-09T19:16:13.822464","MEAN_MOTION":15.29042904,"ECCENTRICITY":0.00043285,"INCLINATION":97.4042,"RA_OF_ASC_NODE":151.6286,"ARG_OF_PERICENTER":306.4185,"MEAN_ANOMALY":53.6655,"EPHEMERIS_TYPE":0,"CLASSIFICATION_TYPE":"U","NORAD_CAT_ID":62610,"ELEMENT_SET_NO":999,"REV_AT_EPOCH":6375,"BSTAR":0.00052814963,"MEAN_MOTION_DOT":0.00014835,"MEAN_MOTION_DDOT":0}]
